IRIDIUM 112             
1 41925U 17003J   24182.61085796  .00000024  00000+0  15902-5 0  9998
2 41925  86.3963  27.7567 0001871  85.8406 274.3004 14.34217766390564
IRIDIUM 111             
1 41926U 17003K   24182.59817336 -.00000005  00000+0 -89876-5 0  9991
2 41926  86.3959  27.8164 0001835  97.7623 262.3781 14.34217455390549
IRIDIUM 113             
1 42803U 17039A   24182.57813757 -.00000001  00000+0 -74515-5 0  9996
2 42803  86.3968 261.5871 0002099  99.7523 260.3910 14.34217738368473
IRIDIUM 123             
1 42804U 17039B   24182.54984724  .00000376  00000+0  12705-3 0  9991
2 42804  86.3967 293.1081 0002140  98.2934 261.8504 14.34218510367231
IRIDIUM 120             
1 42805U 17039C   24182.50202710  .00000023  00000+0  12646-5 0  9991
2 42805  86.3955 261.4942 0002349  94.3402 265.8062 14.34217915368457
IRIDIUM 115             
1 42806U 17039D   24182.58435003  .00000679  00000+0  19573-3 0  9994
2 42806  86.4494 261.4863 0002163 105.3239 254.8201 14.43279236370904
IRIDIUM 118             
1 42807U 17039E   24182.58155859  .00000130  00000+0  39502-4 0  9990
2 42807  86.3967 293.0961 0002087  90.9253 269.2182 14.34219152367230
IRIDIUM 117             
1 42808U 17039F   24182.60058854  .00000094  00000+0  26331-4 0  9996
2 42808  86.3966 293.0523 0002261 100.7264 259.4187 14.34217944367266
